{"type": "FeatureCollection", "features": [ {"type": "Feature", "properties": {"norad_id": 67040, "name": "STARLINK-35786", "group": "last-30-days", "lat": -18.464008112153117, "lon": 84.23761274284725, "alt_km": 357.8109034282079, "timestamp": "2025-12-25T07:41:08.452078+00:00", "meta": {"OBJECT_NAME": "STARLINK-35786", "OBJECT_ID": "2025-294L", "EPOCH": "2025-12-24T22:00:03.000096", "MEAN_MOTION": 15.72457979, "ECCENTRICITY": 0.00013244, "INCLINATION": 42.9998, "RA_OF_ASC_NODE": 107.6711, "ARG_OF_PERICENTER": 279.5973, "MEAN_ANOMALY": 286.9215, "EPHEMERIS_TYPE": 0, "CLASSIFICATION_TYPE": "U", "NORAD_CAT_ID": 67040, "ELEMENT_SET_NO": 999, "REV_AT_EPOCH": 206, "BSTAR": -0.016263941, "MEAN_MOTION_DOT": -0.01975686, "MEAN_MOTION_DDOT": 0}, "tle": {"line1": "1 67040U 25294L   25358.91670139 -.01975686  00000+0 -16264-1 0  9991", "line2": "2 67040  42.9998 107.6711 0001324 279.5973 286.9215 15.72457979  2062"}}, "geometry": {"type": "Point", "coordinates": [84.23761274284725, -18.464008112153117]}}, {"type": "Feature", "properties": {"norad_id": 67041, "name": "STARLINK-35765", "group": "last-30-days", "lat": -15.868596510537124, "lon": 87.46225029945896, "alt_km": 357.63200403464543, "timestamp": "2025-12-25T07:41:08.452088+00:00", "meta": {"OBJECT_NAME": "STARLINK-35765", "OBJECT_ID": "2025-294M", "EPOCH": "2025-12-24T22:00:03.000096", "MEAN_MOTION": 15.7244128, "ECCENTRICITY": 0.00013692, "INCLINATION": 42.9994, "RA_OF_ASC_NODE": 107.6605, "ARG_OF_PERICENTER": 280.1415, "MEAN_ANOMALY": 290.4346, "EPHEMERIS_TYPE": 0, "CLASSIFICATION_TYPE": "U", "NORAD_CAT_ID": 67041, "ELEMENT_SET_NO": 999, "REV_AT_EPOCH": 206, "BSTAR": -0.01622073, "MEAN_MOTION_DOT": -0.01969832, "MEAN_MOTION_DDOT": 0}, "tle": {"line1": "1 67041U 25294M   25358.91670139 -.01969832  00000+0 -16221-1 0  9991", "line2": "2 67041  42.9994 107.6605 0001369 280.1415 290.4346 15.72441280  2062"}}, "geometry": {"type": "Point", "coordinates": [87.46225029945896, -15.868596510537124]}}, {"type": "Feature", "properties": {"norad_id": 67042, "name": "STARLINK-35773", "group": "last-30-days", "lat": -14.49451791188093, "lon": 89.11216339050969, "alt_km": 357.5847629028949, "timestamp": "2025-12-25T07:41:08.452098+00:00", "meta": {"OBJECT_NAME": "STARLINK-35773", "OBJECT_ID": "2025-294N", "EPOCH": "2025-12-24T22:00:03.000096", "MEAN_MOTION": 15.72434031, "ECCENTRICITY": 0.00013861, "INCLINATION": 42.9995, "RA_OF_ASC_NODE": 107.6552, "ARG_OF_PERICENTER": 278.701, "MEAN_ANOMALY": 293.9964, "EPHEMERIS_TYPE": 0, "CLASSIFICATION_TYPE": "U", "NORAD_CAT_ID": 67042, "ELEMENT_SET_NO": 999, "REV_AT_EPOCH": 226, "BSTAR": -0.01627215, "MEAN_MOTION_DOT": -0.01974816, "MEAN_MOTION_DDOT": 0}, "tle": {"line1": "1 67042U 25294N   25358.91670139 -.01974816  00000+0 -16272-1 0  9996", "line2": "2 67042  42.9995 107.6552 0001386 278.7010 293.9964 15.72434031  2260"}}, "geometry": {"type": "Point", "coordinates": [89.11216339050969, -14.49451791188093]}}, {"type": "Feature", "properties": {"norad_id": 67043, "name": "STARLINK-35901", "group": "last-30-days", "lat": -13.11768385853002, "lon": 90.73157331972561, "alt_km": 357.54573108153, "timestamp": "2025-12-25T07:41:08.452111+00:00", "meta": {"OBJECT_NAME": "STARLINK-35901", "OBJECT_ID": "2025-294P", "EPOCH": "2025-12-24T22:00:03.000096", "MEAN_MOTION": 15.72425387, "ECCENTRICITY": 0.00013626, "INCLINATION": 42.9995, "RA_OF_ASC_NODE": 107.6501, "ARG_OF_PERICENTER": 277.1199, "MEAN_ANOMALY": 297.6848, "EPHEMERIS_TYPE": 0, "CLASSIFICATION_TYPE": "U", "NORAD_CAT_ID": 67043, "ELEMENT_SET_NO": 999, "REV_AT_EPOCH": 226, "BSTAR": -0.016283227, "MEAN_MOTION_DOT": -0.01975334, "MEAN_MOTION_DDOT": 0}, "tle": {"line1": "1 67043U 25294P   25358.91670139 -.01975334  00000+0 -16283-1 0  9995", "line2": "2 67043  42.9995 107.6501 0001362 277.1199 297.6848 15.72425387  2266"}}, "geometry": {"type": "Point", "coordinates": [90.73157331972561, -13.11768385853002]}}, {"type": "Feature", "properties": {"norad_id": 67044, "name": "STARLINK-35884", "group": "last-30-days", "lat": -11.757125807334786, "lon": 92.3026189071594, "alt_km": 357.3867865838183, "timestamp": "2025-12-25T07:41:08.452122+00:00", "meta": {"OBJECT_NAME": "STARLINK-35884", "OBJECT_ID": "2025-294Q", "EPOCH": "2025-12-24T22:00:03.000096", "MEAN_MOTION": 15.72416157, "ECCENTRICITY": 0.00013681, "INCLINATION": 42.9998, "RA_OF_ASC_NODE": 107.6449, "ARG_OF_PERICENTER": 280.7685, "MEAN_ANOMALY": 296.1042, "EPHEMERIS_TYPE": 0, "CLASSIFICATION_TYPE": "U", "NORAD_CAT_ID": 67044, "ELEMENT_SET_NO": 999, "REV_AT_EPOCH": 226, "BSTAR": -0.016277413, "MEAN_MOTION_DOT": -0.01974021, "MEAN_MOTION_DDOT": 0}, "tle": {"line1": "1 67044U 25294Q   25358.91670139 -.01974021  00000+0 -16277-1 0  9991", "line2": "2 67044  42.9998 107.6449 0001368 280.7685 296.1042 15.72416157  2262"}}, "geometry": {"type": "Point", "coordinates": [92.3026189071594, -11.757125807334786]}}, {"type": "Feature", "properties": {"norad_id": 67045, "name": "STARLINK-35891", "group": "last-30-days", "lat": -10.230082467764836, "lon": 94.03556451368377, "alt_km": 357.39721970457595, "timestamp": "2025-12-25T07:41:08.452131+00:00", "meta": {"OBJECT_NAME": "STARLINK-35891", "OBJECT_ID": "2025-294R", "EPOCH": "2025-12-24T22:00:03.000096", "MEAN_MOTION": 15.72399193, "ECCENTRICITY": 0.00013533, "INCLINATION": 42.9997, "RA_OF_ASC_NODE": 107.6388, "ARG_OF_PERICENTER": 277.6168, "MEAN_ANOMALY": 301.5764, "EPHEMERIS_TYPE": 0, "CLASSIFICATION_TYPE": "U", "NORAD_CAT_ID": 67045, "ELEMENT_SET_NO": 999, "REV_AT_EPOCH": 218, "BSTAR": -0.016361477, "MEAN_MOTION_DOT": -0.01981728, "MEAN_MOTION_DDOT": 0}, "tle": {"line1": "1 67045U 25294R   25358.91670139 -.01981728  00000+0 -16361-1 0  9998", "line2": "2 67045  42.9997 107.6388 0001353 277.6168 301.5764 15.72399193  2182"}}, "geometry": {"type": "Point", "coordinates": [94.03556451368377, -10.230082467764836]}}, {"type": "Feature", "properties": {"norad_id": 67046, "name": "STARLINK-35721", "group": "last-30-days", "lat": -8.788425670098507, "lon": 95.64752899276635, "alt_km": 357.3129461288099, "timestamp": "2025-12-25T07:41:08.452141+00:00", "meta": {"OBJECT_NAME": "STARLINK-35721", "OBJECT_ID": "2025-294S", "EPOCH": "2025-12-24T22:00:03.000096", "MEAN_MOTION": 15.7238342, "ECCENTRICITY": 0.00012798, "INCLINATION": 42.9999, "RA_OF_ASC_NODE": 107.6336, "ARG_OF_PERICENTER": 278.3165, "MEAN_ANOMALY": 303.0475, "EPHEMERIS_TYPE": 0, "CLASSIFICATION_TYPE": "U", "NORAD_CAT_ID": 67046, "ELEMENT_SET_NO": 999, "REV_AT_EPOCH": 226, "BSTAR": -0.016328905, "MEAN_MOTION_DOT": -0.01976999, "MEAN_MOTION_DDOT": 0}, "tle": {"line1": "1 67046U 25294S   25358.91670139 -.01976999  00000+0 -16329-1 0  9997", "line2": "2 67046  42.9999 107.6336 0001279 278.3165 303.0475 15.72383420  2261"}}, "geometry": {"type": "Point", "coordinates": [95.64752899276635, -8.788425670098507]}}, {"type": "Feature", "properties": {"norad_id": 67047, "name": "STARLINK-35779", "group": "last-30-days", "lat": -7.246398409379894, "lon": 97.34927828758042, "alt_km": 357.25659488442125, "timestamp": "2025-12-25T07:41:08.452153+00:00", "meta": {"OBJECT_NAME": "STARLINK-35779", "OBJECT_ID": "2025-294T", "EPOCH": "2025-12-24T22:00:03.000096", "MEAN_MOTION": 15.7235875, "ECCENTRICITY": 0.00013498, "INCLINATION": 42.9996, "RA_OF_ASC_NODE": 107.6279, "ARG_OF_PERICENTER": 276.4518, "MEAN_ANOMALY": 307.2325, "EPHEMERIS_TYPE": 0, "CLASSIFICATION_TYPE": "U", "NORAD_CAT_ID": 67047, "ELEMENT_SET_NO": 999, "REV_AT_EPOCH": 207, "BSTAR": -0.016306821, "MEAN_MOTION_DOT": -0.01972842, "MEAN_MOTION_DDOT": 0}, "tle": {"line1": "1 67047U 25294T   25358.91670139 -.01972842  00000+0 -16307-1 0  9997", "line2": "2 67047  42.9996 107.6279 0001349 276.4518 307.2325 15.72358750  2071"}}, "geometry": {"type": "Point", "coordinates": [97.34927828758042, -7.246398409379894]}}, {"type": "Feature", "properties": {"norad_id": 67048, "name": "STARLINK-35905", "group": "last-30-days", "lat": -5.925155200533206, "lon": 98.79251738284063, "alt_km": 357.1574462777053, "timestamp": "2025-12-25T07:41:08.452163+00:00", "meta": {"OBJECT_NAME": "STARLINK-35905", "OBJECT_ID": "2025-294U", "EPOCH": "2025-12-24T22:00:03.000096", "MEAN_MOTION": 15.72356222, "ECCENTRICITY": 0.00013017, "INCLINATION": 42.9998, "RA_OF_ASC_NODE": 107.623, "ARG_OF_PERICENTER": 276.1499, "MEAN_ANOMALY": 309.4914, "EPHEMERIS_TYPE": 0, "CLASSIFICATION_TYPE": "U", "NORAD_CAT_ID": 67048, "ELEMENT_SET_NO": 999, "REV_AT_EPOCH": 218, "BSTAR": -0.016301847, "MEAN_MOTION_DOT": -0.01972082, "MEAN_MOTION_DDOT": 0}, "tle": {"line1": "1 67048U 25294U   25358.91670139 -.01972082  00000+0 -16302-1 0  9999", "line2": "2 67048  42.9998 107.6230 0001301 276.1499 309.4914 15.72356222  2186"}}, "geometry": {"type": "Point", "coordinates": [98.79251738284063, -5.925155200533206]}}, {"type": "Feature", "properties": {"norad_id": 67049, "name": "STARLINK-35877", "group": "last-30-days", "lat": -4.413937782630783, "lon": 100.4300303339662, "alt_km": 357.0560764654201, "timestamp": "2025-12-25T07:41:08.452173+00:00", "meta": {"OBJECT_NAME": "STARLINK-35877", "OBJECT_ID": "2025-294V", "EPOCH": "2025-12-24T22:00:03.000096", "MEAN_MOTION": 15.7234049, "ECCENTRICITY": 0.00013224, "INCLINATION": 43.0002, "RA_OF_ASC_NODE": 107.6174, "ARG_OF_PERICENTER": 276.5064, "MEAN_ANOMALY": 311.3872, "EPHEMERIS_TYPE": 0, "CLASSIFICATION_TYPE": "U", "NORAD_CAT_ID": 67049, "ELEMENT_SET_NO": 999, "REV_AT_EPOCH": 226, "BSTAR": -0.016341333, "MEAN_MOTION_DOT": -0.01975133, "MEAN_MOTION_DDOT": 0}, "tle": {"line1": "1 67049U 25294V   25358.91670139 -.01975133  00000+0 -16341-1 0  9993", "line2": "2 67049  43.0002 107.6174 0001322 276.5064 311.3872 15.72340490  2261"}}, "geometry": {"type": "Point", "coordinates": [100.4300303339662, -4.413937782630783]}}]}